CS1                     
1 49261U 21088B   26068.75173904  .00015722  00000+0  51176-3 0  9998
2 49261  97.3882 132.1684 0014129  78.0335 282.2490 15.31848439245182
STARLINK-35831          
1 66374U 25254AC  26068.75645294  .00019642  00000+0  67360-3 0  9994
2 66374  53.1586 229.4159 0000850 101.3463 258.7633 15.30197857 19021
